[
    {
        "CCSDS_OMM_VERS": "3.0",
        "COMMENT": "GENERATED VIA SPACE-TRACK.ORG API",
        "CREATION_DATE": "2025-03-01T17:52:32",
        "ORIGINATOR": "18 SPCS",
        "OBJECT_NAME": "NAVSTAR 72 (USA 258)",
        "OBJECT_ID": "2014-068A",
        "CENTER_NAME": "EARTH",
        "REF_FRAME": "TEME",
        "TIME_SYSTEM": "UTC",
        "MEAN_ELEMENT_THEORY": "SGP4",
        "EPOCH": "2025-03-01T06:29:04.533504",
        "MEAN_MOTION": "2.00576136",
        "ECCENTRICITY": "0.00559350",
        "INCLINATION": "56.6387",
        "RA_OF_ASC_NODE": "49.2334",
        "ARG_OF_PERICENTER": "63.6074",
        "MEAN_ANOMALY": "296.9748",
        "EPHEMERIS_TYPE": "0",
        "CLASSIFICATION_TYPE": "U",
        "NORAD_CAT_ID": "40294",
        "ELEMENT_SET_NO": "999",
        "REV_AT_EPOCH": "7572",
        "BSTAR": "0.00000000000000",
        "MEAN_MOTION_DOT": "-0.00000024",
        "MEAN_MOTION_DDOT": "0.0000000000000",
        "SEMIMAJOR_AXIS": "26559.241",
        "PERIOD": "717.932",
        "APOAPSIS": "20329.666",
        "PERIAPSIS": "20032.547",
        "OBJECT_TYPE": "PAYLOAD",
        "RCS_SIZE": "LARGE",
        "COUNTRY_CODE": "US",
        "LAUNCH_DATE": "2014-10-29",
        "SITE": "AFETR",
        "DECAY_DATE": null,
        "FILE": "4656182",
        "GP_ID": "282002139",
        "TLE_LINE0": "0 NAVSTAR 72 (USA 258)",
        "TLE_LINE1": "1 40294U 14068A   25060.27019136 -.00000024  00000-0  00000-0 0  9997",
        "TLE_LINE2": "2 40294  56.6387  49.2334 0055935  63.6074 296.9748  2.00576136 75720"
    }
]